[
  {
    "name": "ONEWEB-0211",
    "noradId": "48767",
    "line1": "1 48767U 21045A   26187.19591484  .00000052  00000+0  10240-3 0  9995",
    "line2": "2 48767  87.8997 255.2909 0002514 111.9733 248.1665 13.16197459246944"
  },
  {
    "name": "ONEWEB-0223",
    "noradId": "48768",
    "line1": "1 48768U 21045B   26187.20759927  .00000002  00000+0 -28843-4 0  9991",
    "line2": "2 48768  87.9001 255.4021 0002133 110.1714 249.9646 13.15547908246907"
  },
  {
    "name": "ONEWEB-0230",
    "noradId": "48769",
    "line1": "1 48769U 21045C   26187.17908148  .00000163  00000+0  39992-3 0  9992",
    "line2": "2 48769  87.8991 255.4198 0001934  94.9942 265.1409 13.15547984247160"
  },
  {
    "name": "ONEWEB-0237",
    "noradId": "48770",
    "line1": "1 48770U 21045D   26187.24404284  .00000070  00000+0  15309-3 0  9997",
    "line2": "2 48770  87.8989 255.4087 0002372 100.6897 259.4500 13.15547394246899"
  },
  {
    "name": "ONEWEB-0235",
    "noradId": "48771",
    "line1": "1 48771U 21045E   26187.14262824 -.00000057  00000+0 -18608-3 0  9991",
    "line2": "2 48771  87.9000 255.4163 0002065 110.9655 249.1697 13.15550159246879"
  },
  {
    "name": "ONEWEB-0242",
    "noradId": "48772",
    "line1": "1 48772U 21045F   26187.21235427 -.00000014  00000+0 -71487-4 0  9997",
    "line2": "2 48772  87.9003 255.3997 0001890 102.7011 257.4330 13.15548740246922"
  },
  {
    "name": "ONEWEB-0241",
    "noradId": "48773",
    "line1": "1 48773U 21045G   26187.19966479  .00000105  00000+0  24520-3 0  9997",
    "line2": "2 48773  87.8993 255.4182 0002294 108.6603 251.4776 13.15550698246831"
  },
  {
    "name": "ONEWEB-0243",
    "noradId": "48774",
    "line1": "1 48774U 21045H   26187.23137037  .00000015  00000+0  50465-5 0  9992",
    "line2": "2 48774  87.8988 255.4245 0001644 110.4690 249.6617 13.15550687246865"
  },
  {
    "name": "ONEWEB-0222",
    "noradId": "48775",
    "line1": "1 48775U 21045J   26187.21471535 -.00000290  00000+0 -80569-3 0  9998",
    "line2": "2 48775  87.9001 255.3970 0002160 105.3324 254.8045 13.15547740246902"
  },
  {
    "name": "ONEWEB-0244",
    "noradId": "48776",
    "line1": "1 48776U 21045K   26187.24087597  .00000074  00000+0  16375-3 0  9995",
    "line2": "2 48776  87.9002 255.3875 0002002 102.7085 257.4269 13.15547894247478"
  },
  {
    "name": "ONEWEB-0247",
    "noradId": "48777",
    "line1": "1 48777U 21045L   26187.23770839  .00000031  00000+0  48024-4 0  9993",
    "line2": "2 48777  87.8988 255.4176 0001779 122.7377 237.3925 13.15548787246918"
  },
  {
    "name": "ONEWEB-0245",
    "noradId": "48778",
    "line1": "1 48778U 21045M   26187.23294774 -.00000074  00000+0 -23039-3 0  9990",
    "line2": "2 48778  87.8999 255.3995 0002199 103.0716 257.0660 13.15548951246889"
  },
  {
    "name": "ONEWEB-0229",
    "noradId": "48779",
    "line1": "1 48779U 21045N   26187.22819503 -.00000099  00000+0 -29607-3 0  9997",
    "line2": "2 48779  87.9000 255.3982 0001941 100.9562 259.1787 13.15548033246917"
  },
  {
    "name": "ONEWEB-0228",
    "noradId": "48780",
    "line1": "1 48780U 21045P   26187.26161242  .00000141  00000+0  34140-3 0  9997",
    "line2": "2 48780  87.9007 255.3852 0002026 101.1430 258.9929 13.15548710246832"
  },
  {
    "name": "ONEWEB-0232",
    "noradId": "48781",
    "line1": "1 48781U 21045Q   26187.23612280  .00000078  00000+0  17388-3 0  9992",
    "line2": "2 48781  87.9001 255.3910 0002154  99.8840 260.2534 13.15547842247151"
  },
  {
    "name": "ONEWEB-0231",
    "noradId": "48782",
    "line1": "1 48782U 21045R   26187.21393170 -.00000040  00000+0 -14156-3 0  9996",
    "line2": "2 48782  87.8997 255.4072 0002098 105.6966 254.4396 13.15547530246847"
  },
  {
    "name": "ONEWEB-0234",
    "noradId": "48783",
    "line1": "1 48783U 21045S   26187.25182686  .00000239  00000+0  60017-3 0  9994",
    "line2": "2 48783  87.9000 255.3818 0002860  93.9987 266.1470 13.15547381246982"
  },
  {
    "name": "ONEWEB-0238",
    "noradId": "48784",
    "line1": "1 48784U 21045T   26187.17603488  .00000171  00000+0  42037-3 0  9991",
    "line2": "2 48784  87.9004 255.3926 0002457  95.8477 264.2933 13.15548002246876"
  },
  {
    "name": "ONEWEB-0240",
    "noradId": "48785",
    "line1": "1 48785U 21045U   26187.19729905  .00000044  00000+0  82819-4 0  9999",
    "line2": "2 48785  87.9005 255.3978 0002242 106.2291 253.9086 13.15548972246902"
  },
  {
    "name": "ONEWEB-0246",
    "noradId": "48786",
    "line1": "1 48786U 21045V   26187.19175077  .00000123  00000+0  29165-3 0  9997",
    "line2": "2 48786  87.9003 255.4030 0001946 100.4337 259.7013 13.15547524246779"
  },
  {
    "name": "ONEWEB-0210",
    "noradId": "48787",
    "line1": "1 48787U 21045W   26187.24245674  .00000070  00000+0  15268-3 0  9995",
    "line2": "2 48787  87.9001 255.3904 0001464 120.6740 239.4535 13.15547834246828"
  },
  {
    "name": "ONEWEB-0214",
    "noradId": "48788",
    "line1": "1 48788U 21045X   26187.25115365  .00000145  00000+0  35032-3 0  9994",
    "line2": "2 48788  87.9001 255.3854 0001687  97.4029 262.7294 13.15550266246791"
  },
  {
    "name": "ONEWEB-0221",
    "noradId": "48789",
    "line1": "1 48789U 21045Y   26187.25830844  .00000118  00000+0  27812-3 0  9998",
    "line2": "2 48789  87.9002 255.3925 0002045 104.4596 255.6761 13.15547712246881"
  },
  {
    "name": "ONEWEB-0213",
    "noradId": "48790",
    "line1": "1 48790U 21045Z   26187.24721559  .00000141  00000+0  34076-3 0  9997",
    "line2": "2 48790  87.9001 255.3979 0001948 107.3644 252.7699 13.15548562246947"
  },
  {
    "name": "ONEWEB-0212",
    "noradId": "48791",
    "line1": "1 48791U 21045AA  26187.22421749 -.00000054  00000+0 -17784-3 0  9996",
    "line2": "2 48791  87.9000 255.3967 0002089  98.8205 261.3162 13.15547087246939"
  },
  {
    "name": "ONEWEB-0227",
    "noradId": "48792",
    "line1": "1 48792U 21045AB  26187.22344143 -.00000135  00000+0 -39233-3 0  9992",
    "line2": "2 48792  87.9001 255.3973 0002065 101.4821 258.6541 13.15547900246885"
  },
  {
    "name": "ONEWEB-0226",
    "noradId": "48793",
    "line1": "1 48793U 21045AC  26187.21709968 -.00000038  00000+0 -13537-3 0  9993",
    "line2": "2 48793  87.8999 255.4031 0001876 104.9531 255.1807 13.15547716246851"
  },
  {
    "name": "ONEWEB-0224",
    "noradId": "48794",
    "line1": "1 48794U 21045AD  26187.25672533  .00000153  00000+0  37255-3 0  9994",
    "line2": "2 48794  87.8989 255.4286 0002908 106.8227 253.3222 13.15548779246786"
  },
  {
    "name": "ONEWEB-0233",
    "noradId": "48795",
    "line1": "1 48795U 21045AE  26187.26134577  .00001147  00000+0  30125-2 0  9999",
    "line2": "2 48795  87.8991 255.4346 0002087 109.2772 250.8584 13.15543356246809"
  },
  {
    "name": "ONEWEB-0190",
    "noradId": "48796",
    "line1": "1 48796U 21045AF  26187.24879868  .00000217  00000+0  54209-3 0  9994",
    "line2": "2 48796  87.8996 255.3999 0001983 118.9215 241.2115 13.15548954246871"
  }
]